OBJECT_NAME,OBJECT_ID,EPOCH,MEAN_MOTION,ECCENTRICITY,INCLINATION,RA_OF_ASC_NODE,ARG_OF_PERICENTER,MEAN_ANOMALY,EPHEMERIS_TYPE,CLASSIFICATION_TYPE,NORAD_CAT_ID,ELEMENT_SET_NO,REV_AT_EPOCH,BSTAR,MEAN_MOTION_DOT,MEAN_MOTION_DDOT
CUTE-1 (CO-55),2003-031E,2026-06-09T05:45:04.286016,14.24330800,.00090039,98.6735,168.8984,201.6668,158.4131,0,U,27844,999,19054,.13415447E-3,.266E-5,0
CUBESAT XI-IV (CO-57),2003-031J,2026-06-09T00:19:05.278656,14.23616414,.00085614,98.6766,168.3941,222.5153,137.5363,0,U,27848,999,19021,.11651716E-3,.222E-5,0
CUBESAT XI-V,2005-043F,2026-06-07T22:59:29.763168,14.72607812,.00130883,98.2976,314.3867,231.5140,128.4894,0,U,28895,999,10039,.26180301E-3,.1615E-4,0
CUTE-1.7+APD II (CO-65),2008-021C,2026-06-09T05:27:28.979136,15.09376314,.00103423,97.8272,141.4808,62.0877,298.1398,0,U,32785,999,98399,.32463854E-3,.5125E-4,0
CANX-2,2008-021H,2026-06-08T21:56:25.741248,15.05555426,.0011979,97.8626,139.5320,75.2452,285.0101,0,U,32790,999,98356,.2299679E-3,.3251E-4,0
SEEDS II (CO-66),2008-021J,2026-06-09T05:39:09.738432,15.32477826,.00022936,97.7519,157.7552,29.0945,331.0424,0,U,32791,999,98607,.51421817E-3,.1606E-3,0
SWISSCUBE,2009-051B,2026-06-09T05:34:22.375488,14.62466323,.00055364,98.4042,67.9819,231.7827,128.2876,0,U,35932,999,88799,.18429864E-3,.884E-5,0
BEESAT-1,2009-051C,2026-06-09T07:20:34.906848,14.61707654,.00039107,98.3972,67.7088,248.2700,111.8085,0,U,35933,999,88803,.15740813E-3,.735E-5,0
ITUPSAT1,2009-051E,2026-06-09T06:57:31.866624,14.60428780,.00060783,98.4055,66.8927,263.4866,96.5642,0,U,35935,999,88758,.14856364E-3,.671E-5,0
TISAT 1,2010-035E,2026-06-08T19:40:13.696608,15.31390446,.00001854,98.0700,105.6282,170.3248,189.7995,0,U,36799,999,86642,.66607275E-3,.20138E-3,0
AEROCUBE 4.5A,2012-048K,2026-06-09T01:31:33.161664,15.89953795,.00196357,64.6259,56.5026,216.6913,143.2904,0,U,38767,999,37136,.10166909E-2,.309596E-2,.42163424E-4
STRAND-1,2013-009E,2026-06-09T06:12:02.102688,14.37158500,.00074398,98.3921,340.6880,252.3882,107.6492,0,U,39090,999,69592,.10122646E-3,.258E-5,0
BRITE-AUSTRIA,2013-009F,2026-06-09T01:24:45.214560,14.36538801,.0008962,98.3993,339.6960,263.9907,96.0258,0,U,39091,999,69588,.6601052E-4,.151E-5,0
NEE-01 PEGASO,2013-018B,2026-06-08T08:32:14.121600,14.93619595,.00124663,98.1214,303.2151,186.8479,173.2571,0,U,39151,999,70938,.31012323E-3,.3217E-4,0
POPACS 2,2013-055E,2026-06-08T23:44:46.269888,14.91012994,.04171115,80.9909,153.5751,220.1304,136.8418,0,U,39269,999,66199,.17808319E-3,.10457E-3,0
POPACS 3,2013-055F,2026-06-08T12:42:41.649408,14.55959449,.05528779,81.0011,238.5709,96.3321,270.1114,0,U,39270,999,63729,.25136938E-3,.10683E-3,0
ZACUBE-1 (TSHEPISOSAT),2013-066B,2026-06-09T03:24:19.723680,15.01137906,.00400541,97.8092,122.4351,275.9917,83.6743,0,U,39417,999,67952,.23503368E-3,.2997E-4,0
WNISAT-1,2013-066H,2026-06-09T06:00:39.526272,14.58049718,.01617018,97.7193,309.9705,256.7888,101.5231,0,U,39423,999,66557,.12865836E-3,.657E-5,0
TRITON-1,2013-066M,2026-06-09T06:13:25.635936,14.81681542,.00883018,97.8246,70.2464,260.2089,98.9144,0,U,39427,999,67291,.30911803E-3,.2545E-4,0
GOMX-1,2013-066Q,2026-06-09T06:53:20.399424,14.69429819,.01301381,97.6494,1.2481,102.6304,258.9490,0,U,39430,999,66875,.24471672E-3,.16E-4,0
CUBEBUG-2 (LO-74),2013-066AA,2026-06-09T02:12:00.699264,14.93697738,.00591913,97.8903,109.0360,55.3304,305.3474,0,U,39440,999,67578,.3170228E-3,.3409E-4,0
NEE-02 KRYSAOR,2013-066AB,2026-06-09T01:33:22.811040,14.86583594,.00676998,97.8887,99.3379,96.1920,264.7013,0,U,39441,999,67499,.20685673E-3,.1853E-4,0
FUNCUBE-1 (AO-73),2013-066AE,2026-06-09T04:01:43.626720,15.09393647,.00348293,97.8270,131.4468,228.8451,130.9771,0,U,39444,999,67845,.31573804E-3,.5048E-4,0
UWE-3,2013-066AG,2026-06-09T03:04:03.741312,14.96959057,.00487694,97.8686,116.1479,348.2293,11.7784,0,U,39446,999,67637,.30256314E-3,.3499E-4,0
BRITE-CA1 (TORONTO),2014-033L,2026-06-09T07:00:37.235232,14.72665739,.00774268,97.9729,289.3660,302.7376,56.6385,0,U,40020,999,64105,.1011072E-3,.62E-5,0
DUCHIFAT-1,2014-033M,2026-06-09T02:05:18.604896,15.62989578,.00043246,98.0464,218.1182,130.2252,229.9384,0,U,40021,999,65448,.90222311E-3,.8235E-3,0
NANOSATC-BR1,2014-033Q,2026-06-09T00:53:52.251648,15.31195370,.00035439,98.0734,191.7047,185.9906,174.1292,0,U,40024,999,65273,.49565966E-3,.14864E-3,0
QB50P1,2014-033R,2026-06-08T23:27:25.839360,15.18136091,.00072105,98.0972,170.5484,248.4220,111.6244,0,U,40025,999,65178,.42191604E-3,.8544E-4,0
QB50P2,2014-033Y,2026-06-09T05:46:58.729728,15.15057589,.00071754,98.0755,156.6271,188.7079,171.4028,0,U,40032,999,65146,.3087945E-3,.5704E-4,0
PERSEUS-M2,2014-033AD,2026-06-09T07:14:31.238016,14.95491602,.00113379,97.9971,110.6826,334.3953,25.6705,0,U,40037,999,64960,.12649007E-3,.134E-4,0
